0 COSMOS 1136
1 11544U 79084G   13282.64588718 -.00000007  00000-0  57664-4 0  5262
2 11544 074.0231 149.4117 0015291 055.9068 005.3491 12.45246627547560
0 COSMOS 1136
1 11544U 79084G   13286.99401572  .00000024  00000-0  27432-3 0  5285
2 11544 074.0222 143.6828 0015352 049.2275 057.7276 12.45246638548104
0 COSMOS 1136
1 11544U 79084G   13289.08446509 -.00000002  00000-0  96564-4 0  5298
2 11544 074.0219 140.9284 0015380 046.0391 069.0532 12.45247078548369
0 COSMOS 1136
1 11544U 79084G   13291.48633179 -.00000035  00000-0 -13246-3 0  5300
2 11544 074.0218 137.7636 0015417 042.4112 036.4066 12.45247274548666
0 COSMOS 1136
1 11544U 79084G   13293.49541350 -.00000027  00000-0 -81190-4 0  5318
2 11544 074.0218 135.1163 0015445 039.3741 042.9449 12.45247176548913
0 COSMOS 1136
1 11544U 79084G   13295.49627197  .00000001  00000-0  11553-3 0  5320
2 11544 074.0218 132.4797 0015477 036.3760 012.5930 12.45246947549160
